$$SOE
2461302.500000000, A.D. 2026-Sep-19 00:00:00.0000, 2.581607436037673E+08, 1.568946175855770E+08, -4.406814226010633E+07,
2461309.500000000, A.D. 2026-Sep-26 00:00:00.0000, 2.524994475924360E+08, 1.696389372358274E+08, -4.577592621290351E+07,
2461316.500000000, A.D. 2026-Oct-03 00:00:00.0000, 2.464170883819457E+08, 1.821004612086168E+08, -4.740739123498069E+07,
2461323.500000000, A.D. 2026-Oct-10 00:00:00.0000, 2.399333801093825E+08, 1.942654857159148E+08, -4.896165889356719E+07,
2461330.500000000, A.D. 2026-Oct-17 00:00:00.0000, 2.330682811888070E+08, 2.061218099384380E+08, -5.043811625923307E+07,
2461337.500000000, A.D. 2026-Oct-24 00:00:00.0000, 2.258418645701989E+08, 2.176586920907874E+08, -5.183639954714016E+07,
2461344.500000000, A.D. 2026-Oct-31 00:00:00.0000, 2.182741998446157E+08, 2.288667954186800E+08, -5.315637697492275E+07,
2461351.500000000, A.D. 2026-Nov-07 00:00:00.0000, 2.103852478620974E+08, 2.397381261990390E+08, -5.439813121300561E+07,
2461358.500000000, A.D. 2026-Nov-14 00:00:00.0000, 2.021947680855100E+08, 2.502659665031766E+08, -5.556194168010791E+07,
2461365.500000000, A.D. 2026-Nov-21 00:00:00.0000, 1.937222366301141E+08, 2.604448041259295E+08, -5.664826672346336E+07,
2461372.500000000, A.D. 2026-Nov-28 00:00:00.0000, 1.849867735514751E+08, 2.702702582410395E+08, -5.765772606165013E+07,
2461379.500000000, A.D. 2026-Dec-05 00:00:00.0000, 1.760070824322334E+08, 2.797390015194286E+08, -5.859108406956638E+07,
2461386.500000000, A.D. 2026-Dec-12 00:00:00.0000, 1.668014017541144E+08, 2.888486830062282E+08, -5.944923382018017E+07,
2461393.500000000, A.D. 2026-Dec-19 00:00:00.0000, 1.573874654046399E+08, 2.975978527566379E+08, -6.023318182276694E+07,
2461400.500000000, A.D. 2026-Dec-26 00:00:00.0000, 1.477824713672540E+08, 3.059858881816040E+08, -6.094403359529062E+07,
2461407.500000000, A.D. 2027-Jan-02 00:00:00.0000, 1.380030580432023E+08, 3.140129225686910E+08, -6.158298016227274E+07,
2461414.500000000, A.D. 2027-Jan-09 00:00:00.0000, 1.280652874977508E+08, 3.216797763077420E+08, -6.215128551286025E+07,
2461421.500000000, A.D. 2027-Jan-16 00:00:00.0000, 1.179846348629482E+08, 3.289878912095780E+08, -6.265027502703017E+07,
2461428.500000000, A.D. 2027-Jan-23 00:00:00.0000, 1.077759831747743E+08, 3.359392681441202E+08, -6.308132486662076E+07,
2461435.500000000, A.D. 2027-Jan-30 00:00:00.0000, 9.745362310896333E+07, 3.425364081189709E+08, -6.344585232888605E+07,
2461442.500000000, A.D. 2027-Feb-06 00:00:00.0000, 8.703125736829187E+07, 3.487822572260938E+08, -6.374530714100796E+07,
2461449.500000000, A.D. 2027-Feb-13 00:00:00.0000, 7.652200864622010E+07, 3.546801566957479E+08, -6.398116351434083E+07,
2461456.500000000, A.D. 2027-Feb-20 00:00:00.0000, 6.593842824477746E+07, 3.602337972240466E+08, -6.415491275968768E+07,
2461463.500000000, A.D. 2027-Feb-27 00:00:00.0000, 5.529250623333813E+07, 3.654471742742378E+08, -6.426805680298623E+07,
2461470.500000000, A.D. 2027-Mar-06 00:00:00.0000, 4.459568571521538E+07, 3.703245461646248E+08, -6.432210267247608E+07,
2461477.500000000, A.D. 2027-Mar-13 00:00:00.0000, 3.385887920821897E+07, 3.748703968519100E+08, -6.431855759323631E+07,
2461484.500000000, A.D. 2027-Mar-20 00:00:00.0000, 2.309248566124247E+07, 3.790894024118963E+08, -6.425892460196929E+07,
2461491.500000000, A.D. 2027-Mar-27 00:00:00.0000, 1.230640800419764E+07, 3.829864004951161E+08, -6.414469869524436E+07,
2461498.500000000, A.D. 2027-Apr-03 00:00:00.0000, 1.510071171427970E+06, 3.865663625302216E+08, -6.397736348571661E+07,
2461505.500000000, A.D. 2027-Apr-10 00:00:00.0000, -9.287559565053275E+06, 3.898343685160082E+08, -6.375838832426657E+07,
2461512.500000000, A.D. 2027-Apr-17 00:00:00.0000, -2.007796012141906E+07, 3.927955842059772E+08, -6.348922584786892E+07,
2461519.500000000, A.D. 2027-Apr-24 00:00:00.0000, -3.085302906856170E+07, 3.954552404445502E+08, -6.317130992472987E+07,
2461526.500000000, A.D. 2027-May-01 00:00:00.0000, -4.160506887386208E+07, 3.978186145092456E+08, -6.280605398381603E+07,
2461533.500000000, A.D. 2027-May-08 00:00:00.0000, -5.232676672165196E+07, 3.998910140412414E+08, -6.239484966077062E+07,
2461540.500000000, A.D. 2027-May-15 00:00:00.0000, -6.301117649813829E+07, 4.016777643606511E+08, -6.193906551320744E+07,
2461547.500000000, A.D. 2027-May-22 00:00:00.0000, -7.365170357343411E+07, 4.031841964224468E+08, -6.144004584330389E+07,
2461554.500000000, A.D. 2027-May-29 00:00:00.0000, -8.424208908216818E+07, 4.044156337988839E+08, -6.089911002649745E+07,
2461561.500000000, A.D. 2027-Jun-05 00:00:00.0000, -9.477639286309457E+07, 4.053773816902949E+08, -6.031755214748676E+07,
2461568.500000000, A.D. 2027-Jun-12 00:00:00.0000, -1.052489770947164E+08, 4.060747182746885E+08, -5.969664070236979E+07,
2461575.500000000, A.D. 2027-Jun-19 00:00:00.0000, -1.156544909780705E+08, 4.065128873452709E+08, -5.903761839206843E+07,
2461582.500000000, A.D. 2027-Jun-26 00:00:00.0000, -1.259878562003455E+08, 4.066970918676998E+08, -5.834170203520468E+07,
2461589.500000000, A.D. 2027-Jul-03 00:00:00.0000, -1.362442530533328E+08, 4.066324883675743E+08, -5.761008259514707E+07,
2461596.500000000, A.D. 2027-Jul-10 00:00:00.0000, -1.464191071697485E+08, 4.063241820671641E+08, -5.684392530889776E+07,
2461603.500000000, A.D. 2027-Jul-17 00:00:00.0000, -1.565080768355778E+08, 4.057772226498939E+08, -5.604436991071069E+07,
2461610.500000000, A.D. 2027-Jul-24 00:00:00.0000, -1.665070407121554E+08, 4.049966005132216E+08, -5.521253095738928E+07,
2461617.500000000, A.D. 2027-Jul-31 00:00:00.0000, -1.764120855439266E+08, 4.039872436742152E+08, -5.434949826218034E+07,
2461624.500000000, A.D. 2027-Aug-07 00:00:00.0000, -1.862194940391478E+08, 4.027540164144202E+08, -5.345633731451897E+07,
2461631.500000000, A.D. 2027-Aug-14 00:00:00.0000, -1.959257352101947E+08, 4.013017193530454E+08, -5.253408948688698E+07,
2461638.500000000, A.D. 2027-Aug-21 00:00:00.0000, -2.055274565380918E+08, 3.996350875312741E+08, -5.158377235282065E+07,
2461645.500000000, A.D. 2027-Aug-28 00:00:00.0000, -2.150214745140482E+08, 3.977587876621976E+08, -5.060638032571462E+07,
2461652.500000000, A.D. 2027-Sep-04 00:00:00.0000, -2.244047647232042E+08, 3.956774170091150E+08, -4.960288530120771E+07,
2461659.500000000, A.D. 2027-Sep-11 00:00:00.0000, -2.336744528459427E+08, 3.933955031954430E+08, -4.857423722524618E+07,
2461666.500000000, A.D. 2027-Sep-18 00:00:00.0000, -2.428278064224943E+08, 3.909175042614123E+08, -4.752136464884855E+07,
2461673.500000000, A.D. 2027-Sep-25 00:00:00.0000, -2.518622271317332E+08, 3.882478088578109E+08, -4.644517529296054E+07,
2461680.500000000, A.D. 2027-Oct-02 00:00:00.0000, -2.607752434896058E+08, 3.853907365754608E+08, -4.534655662466624E+07,
2461687.500000000, A.D. 2027-Oct-09 00:00:00.0000, -2.695645039257505E+08, 3.823505383801078E+08, -4.422637644434078E+07,
2461694.500000000, A.D. 2027-Oct-16 00:00:00.0000, -2.782277701566287E+08, 3.791313970747636E+08, -4.308548349160463E+07,
2461701.500000000, A.D. 2027-Oct-23 00:00:00.0000, -2.867629105772814E+08, 3.757374277630978E+08, -4.192470809230842E+07,
2461708.500000000, A.D. 2027-Oct-30 00:00:00.0000, -2.951678932797546E+08, 3.721726789056043E+08, -4.074486282927562E+07,
2461715.500000000, A.D. 2027-Nov-06 00:00:00.0000, -3.034407798456424E+08, 3.684411350805985E+08, -3.954674303659685E+07,
2461722.500000000, A.D. 2027-Nov-13 00:00:00.0000, -3.115797218822984E+08, 3.645467193605695E+08, -3.833112710411999E+07,
2461729.500000000, A.D. 2027-Nov-20 00:00:00.0000, -3.195829573834965E+08, 3.604932931045363E+08, -3.709877703549904E+07,
2461736.500000000, A.D. 2027-Nov-27 00:00:00.0000, -3.274488052819709E+08, 3.562846561170386E+08, -3.585043916450247E+07,
2461743.500000000, A.D. 2027-Dec-04 00:00:00.0000, -3.351756602050092E+08, 3.519245480777518E+08, -3.458684476887913E+07,
2461750.500000000, A.D. 2027-Dec-11 00:00:00.0000, -3.427619879704379E+08, 3.474166502697540E+08, -3.330871060969636E+07,
2461757.500000000, A.D. 2027-Dec-18 00:00:00.0000, -3.502063215347174E+08, 3.427645872593313E+08, -3.201673944848983E+07,
2461764.500000000, A.D. 2027-Dec-25 00:00:00.0000, -3.575072572287917E+08, 3.379719285177928E+08, -3.071162055583666E+07,
2461771.500000000, A.D. 2028-Jan-01 00:00:00.0000, -3.646634512287201E+08, 3.330421899935275E+08, -2.939403021358873E+07,
$$EOE